{"type": "FeatureCollection", "features": [ {"type": "Feature", "properties": {"norad_id": 67153, "name": "KUIPER-00248", "group": "last-30-days", "lat": -21.6885783319751, "lon": 37.78778899818203, "alt_km": 470.79518583862136, "timestamp": "2025-12-27T02:10:14.911646+00:00", "meta": {"OBJECT_NAME": "KUIPER-00248", "OBJECT_ID": "2025-301W", "EPOCH": "2025-12-26T18:28:43.267872", "MEAN_MOTION": 15.34705298, "ECCENTRICITY": 0.0008806, "INCLINATION": 51.8678, "RA_OF_ASC_NODE": 57.538, "ARG_OF_PERICENTER": 143.5222, "MEAN_ANOMALY": 216.6365, "EPHEMERIS_TYPE": 0, "CLASSIFICATION_TYPE": "U", "NORAD_CAT_ID": 67153, "ELEMENT_SET_NO": 999, "REV_AT_EPOCH": 269, "BSTAR": 0.00087642, "MEAN_MOTION_DOT": 0.00029699, "MEAN_MOTION_DDOT": 0}, "tle": {"line1": "1 67153U 25301W   25360.76994523  .00029699  00000+0  87642-3 0  9998", "line2": "2 67153  51.8678  57.5380 0008806 143.5222 216.6365 15.34705298  2698"}}, "geometry": {"type": "Point", "coordinates": [37.78778899818203, -21.6885783319751]}}, {"type": "Feature", "properties": {"norad_id": 67154, "name": "KUIPER-00249", "group": "last-30-days", "lat": -15.740758153279844, "lon": 43.183977197966804, "alt_km": 469.17300407422226, "timestamp": "2025-12-27T02:10:14.911657+00:00", "meta": {"OBJECT_NAME": "KUIPER-00249", "OBJECT_ID": "2025-301X", "EPOCH": "2025-12-26T15:19:11.134848", "MEAN_MOTION": 15.34823508, "ECCENTRICITY": 0.00081, "INCLINATION": 51.8653, "RA_OF_ASC_NODE": 58.1564, "ARG_OF_PERICENTER": 139.941, "MEAN_ANOMALY": 220.2175, "EPHEMERIS_TYPE": 0, "CLASSIFICATION_TYPE": "U", "NORAD_CAT_ID": 67154, "ELEMENT_SET_NO": 999, "REV_AT_EPOCH": 250, "BSTAR": 0.00085989, "MEAN_MOTION_DOT": 0.00029236, "MEAN_MOTION_DDOT": 0}, "tle": {"line1": "1 67154U 25301X   25360.63832332  .00029236  00000+0  85989-3 0  9993", "line2": "2 67154  51.8653  58.1564 0008100 139.9410 220.2175 15.34823508  2503"}}, "geometry": {"type": "Point", "coordinates": [43.183977197966804, -15.740758153279844]}}, {"type": "Feature", "properties": {"norad_id": 67155, "name": "KUIPER-00250", "group": "last-30-days", "lat": -1.0056418777701674, "lon": 55.147449042384004, "alt_km": 463.5457650870994, "timestamp": "2025-12-27T02:10:14.911667+00:00", "meta": {"OBJECT_NAME": "KUIPER-00250", "OBJECT_ID": "2025-301Y", "EPOCH": "2025-12-26T15:14:29.262624", "MEAN_MOTION": 15.35370073, "ECCENTRICITY": 0.000624, "INCLINATION": 51.8715, "RA_OF_ASC_NODE": 58.1338, "ARG_OF_PERICENTER": 130.2941, "MEAN_ANOMALY": 229.8591, "EPHEMERIS_TYPE": 0, "CLASSIFICATION_TYPE": "U", "NORAD_CAT_ID": 67155, "ELEMENT_SET_NO": 999, "REV_AT_EPOCH": 253, "BSTAR": 0.00084888, "MEAN_MOTION_DOT": 0.00029358, "MEAN_MOTION_DDOT": 0}, "tle": {"line1": "1 67155U 25301Y   25360.63506091  .00029358  00000+0  84888-3 0  9996", "line2": "2 67155  51.8715  58.1338 0006240 130.2941 229.8591 15.35370073  2533"}}, "geometry": {"type": "Point", "coordinates": [55.147449042384004, -1.0056418777701674]}}, {"type": "Feature", "properties": {"norad_id": 67156, "name": "KUIPER-00251", "group": "last-30-days", "lat": -19.047255616848716, "lon": 40.24939935451926, "alt_km": 470.06058025682887, "timestamp": "2025-12-27T02:10:14.911678+00:00", "meta": {"OBJECT_NAME": "KUIPER-00251", "OBJECT_ID": "2025-301Z", "EPOCH": "2025-12-26T15:20:18.387744", "MEAN_MOTION": 15.34794128, "ECCENTRICITY": 0.0008753, "INCLINATION": 51.8668, "RA_OF_ASC_NODE": 58.1618, "ARG_OF_PERICENTER": 138.1231, "MEAN_ANOMALY": 222.0426, "EPHEMERIS_TYPE": 0, "CLASSIFICATION_TYPE": "U", "NORAD_CAT_ID": 67156, "ELEMENT_SET_NO": 999, "REV_AT_EPOCH": 269, "BSTAR": 0.00093482, "MEAN_MOTION_DOT": 0.00031803, "MEAN_MOTION_DDOT": 0}, "tle": {"line1": "1 67156U 25301Z   25360.63910171  .00031803  00000+0  93482-3 0  9993", "line2": "2 67156  51.8668  58.1618 0008753 138.1231 222.0426 15.34794128  2691"}}, "geometry": {"type": "Point", "coordinates": [40.24939935451926, -19.047255616848716]}}, {"type": "Feature", "properties": {"norad_id": 67157, "name": "KUIPER-00252", "group": "last-30-days", "lat": -31.25463760022078, "lon": 27.54266236071448, "alt_km": 473.3581886894899, "timestamp": "2025-12-27T02:10:14.911688+00:00", "meta": {"OBJECT_NAME": "KUIPER-00252", "OBJECT_ID": "2025-301AA", "EPOCH": "2025-12-26T18:32:03.943104", "MEAN_MOTION": 15.34306319, "ECCENTRICITY": 0.000995, "INCLINATION": 51.8656, "RA_OF_ASC_NODE": 57.5526, "ARG_OF_PERICENTER": 150.1041, "MEAN_ANOMALY": 210.0515, "EPHEMERIS_TYPE": 0, "CLASSIFICATION_TYPE": "U", "NORAD_CAT_ID": 67157, "ELEMENT_SET_NO": 999, "REV_AT_EPOCH": 252, "BSTAR": 0.00068968, "MEAN_MOTION_DOT": 0.00022979, "MEAN_MOTION_DDOT": 0}, "tle": {"line1": "1 67157U 25301AA  25360.77226786  .00022979  00000+0  68968-3 0  9996", "line2": "2 67157  51.8656  57.5526 0009950 150.1041 210.0515 15.34306319  2522"}}, "geometry": {"type": "Point", "coordinates": [27.54266236071448, -31.25463760022078]}}, {"type": "Feature", "properties": {"norad_id": 67158, "name": "KUIPER-00261", "group": "last-30-days", "lat": 3.684818826079146, "lon": 58.826493277429215, "alt_km": 461.9824465823458, "timestamp": "2025-12-27T02:10:14.911698+00:00", "meta": {"OBJECT_NAME": "KUIPER-00261", "OBJECT_ID": "2025-301AB", "EPOCH": "2025-12-26T15:12:57.910176", "MEAN_MOTION": 15.35442331, "ECCENTRICITY": 0.0005676, "INCLINATION": 51.8699, "RA_OF_ASC_NODE": 58.1286, "ARG_OF_PERICENTER": 127.6885, "MEAN_ANOMALY": 232.4616, "EPHEMERIS_TYPE": 0, "CLASSIFICATION_TYPE": "U", "NORAD_CAT_ID": 67158, "ELEMENT_SET_NO": 999, "REV_AT_EPOCH": 250, "BSTAR": 0.00094696, "MEAN_MOTION_DOT": 0.00032883, "MEAN_MOTION_DDOT": 0}, "tle": {"line1": "1 67158U 25301AB  25360.63400359  .00032883  00000+0  94696-3 0  9994", "line2": "2 67158  51.8699  58.1286 0005676 127.6885 232.4616 15.35442331  2500"}}, "geometry": {"type": "Point", "coordinates": [58.826493277429215, 3.684818826079146]}}, {"type": "Feature", "properties": {"norad_id": 67159, "name": "KUIPER-00265", "group": "last-30-days", "lat": 32.19517589820909, "lon": 85.48116443958594, "alt_km": 451.6749238538205, "timestamp": "2025-12-27T02:10:14.911708+00:00", "meta": {"OBJECT_NAME": "KUIPER-00265", "OBJECT_ID": "2025-301AC", "EPOCH": "2025-12-26T16:37:11.419392", "MEAN_MOTION": 15.36447148, "ECCENTRICITY": 0.0001964, "INCLINATION": 51.8737, "RA_OF_ASC_NODE": 57.7669, "ARG_OF_PERICENTER": 98.7269, "MEAN_ANOMALY": 261.394, "EPHEMERIS_TYPE": 0, "CLASSIFICATION_TYPE": "U", "NORAD_CAT_ID": 67159, "ELEMENT_SET_NO": 999, "REV_AT_EPOCH": 254, "BSTAR": 0.0011135, "MEAN_MOTION_DOT": 0.00040036, "MEAN_MOTION_DDOT": 0}, "tle": {"line1": "1 67159U 25301AC  25360.69249328  .00040036  00000+0  11135-2 0  9993", "line2": "2 67159  51.8737  57.7669 0001964  98.7269 261.3940 15.36447148  2541"}}, "geometry": {"type": "Point", "coordinates": [85.48116443958594, 32.19517589820909]}}, {"type": "Feature", "properties": {"norad_id": 67160, "name": "GALILEO A", "group": "last-30-days", "lat": 10.072494160753909, "lon": -80.35367038894837, "alt_km": 22934.48025549838, "timestamp": "2025-12-27T02:10:14.911720+00:00", "meta": {"OBJECT_NAME": "GALILEO A", "OBJECT_ID": "2025-302A", "EPOCH": "2025-12-18T03:30:19.486368", "MEAN_MOTION": 1.72906186, "ECCENTRICITY": 0.00084238, "INCLINATION": 54.2406, "RA_OF_ASC_NODE": 107.2544, "ARG_OF_PERICENTER": 237.6458, "MEAN_ANOMALY": 122.2317, "EPHEMERIS_TYPE": 0, "CLASSIFICATION_TYPE": "U", "NORAD_CAT_ID": 67160, "ELEMENT_SET_NO": 999, "REV_AT_EPOCH": 2, "BSTAR": 0, "MEAN_MOTION_DOT": -7e-08, "MEAN_MOTION_DDOT": 0}, "tle": {"line1": "1 67160U 25302A   25352.14605887 -.00000007  00000+0  00000+0 0  9994", "line2": "2 67160  54.2406 107.2544 0008423 237.6458 122.2317  1.72906186    28"}}, "geometry": {"type": "Point", "coordinates": [-80.35367038894837, 10.072494160753909]}}, {"type": "Feature", "properties": {"norad_id": 67161, "name": "GALILEO B", "group": "last-30-days", "lat": 8.161802496049148, "lon": -78.96723725632586, "alt_km": 22934.79318698074, "timestamp": "2025-12-27T02:10:14.911731+00:00", "meta": {"OBJECT_NAME": "GALILEO B", "OBJECT_ID": "2025-302B", "EPOCH": "2025-12-26T19:37:10.068096", "MEAN_MOTION": 1.72972318, "ECCENTRICITY": 0.0004777, "INCLINATION": 54.2304, "RA_OF_ASC_NODE": 106.9693, "ARG_OF_PERICENTER": 256.4913, "MEAN_ANOMALY": 103.4489, "EPHEMERIS_TYPE": 0, "CLASSIFICATION_TYPE": "U", "NORAD_CAT_ID": 67161, "ELEMENT_SET_NO": 999, "REV_AT_EPOCH": 18, "BSTAR": 0, "MEAN_MOTION_DOT": 1.6e-07, "MEAN_MOTION_DDOT": 0}, "tle": {"line1": "1 67161U 25302B   25360.81747764  .00000016  00000+0  00000+0 0  9998", "line2": "2 67161  54.2304 106.9693 0004777 256.4913 103.4489  1.72972318   188"}}, "geometry": {"type": "Point", "coordinates": [-78.96723725632586, 8.161802496049148]}}, {"type": "Feature", "properties": {"norad_id": 67162, "name": "ARIANE 6 R/B", "group": "last-30-days", "lat": 3.6607554825524673, "lon": -75.64787974538595, "alt_km": 22917.67994650708, "timestamp": "2025-12-27T02:10:14.911742+00:00", "meta": {"OBJECT_NAME": "ARIANE 6 R/B", "OBJECT_ID": "2025-302C", "EPOCH": "2025-12-19T07:12:31.071168", "MEAN_MOTION": 1.73130298, "ECCENTRICITY": 2.559e-05, "INCLINATION": 54.2437, "RA_OF_ASC_NODE": 107.222, "ARG_OF_PERICENTER": 160.7324, "MEAN_ANOMALY": 199.2296, "EPHEMERIS_TYPE": 0, "CLASSIFICATION_TYPE": "U", "NORAD_CAT_ID": 67162, "ELEMENT_SET_NO": 999, "REV_AT_EPOCH": 8, "BSTAR": 0, "MEAN_MOTION_DOT": -5e-08, "MEAN_MOTION_DDOT": 0}, "tle": {"line1": "1 67162U 25302C   25353.30035962 -.00000005  00000+0  00000+0 0  9994", "line2": "2 67162  54.2437 107.2220 0000255 160.7324 199.2296  1.73130298    88"}}, "geometry": {"type": "Point", "coordinates": [-75.64787974538595, 3.6607554825524673]}}]}